ORBCOMM FM37            
1 33064U 08031E   25311.62531550  .00003116  00000+0  43121-3 0  9991
2 33064  48.4404  21.4522 0005957 272.8826 240.5090 14.80385916935292
ORBCOMM FM40            
1 33065U 08031F   25311.51186071  .00003855  00000+0  49746-3 0  9993
2 33065  48.4418   3.5521 0007058 287.2580 213.9302 14.82821923935429
VESSELSAT 1             
1 37840U 11058C   25311.33821341  .00000439  00000+0  94747-4 0  9994
2 37840  19.9628 307.6615 0013523 321.8587  38.0861 14.11387141726557
ORBCOMM FM109           
1 40086U 14040A   25311.72185199  .00001145  00000+0  28089-3 0  9991
2 40086  47.0040  58.2828 0002383 270.5210  89.5403 14.58441076602019
ORBCOMM FM107           
1 40087U 14040B   25311.67449257  .00001256  00000+0  30400-3 0  9997
2 40087  47.0057  59.4109 0001815 232.2658 127.8064 14.58519590602086
ORBCOMM FM106           
1 40088U 14040C   25311.81643936  .00002295  00000+0  41042-3 0  9992
2 40088  47.0591 229.2805 0016668  12.3034 347.8261 14.69880744604604
ORBCOMM FM111           
1 40089U 14040D   25311.62741595  .00006270  00000+0  70431-3 0  9993
2 40089  47.0012  60.7210 0028964 162.2015 197.9903 14.87349744611578
ORBCOMM FM104           
1 40090U 14040E   25311.47843513  .00001153  00000+0  29185-3 0  9996
2 40090  47.0040  95.6794 0016110 142.0580 218.1443 14.56906972601514
